"cityCode","cityName","wellnessCentreCode","wellnessCentreName","wellnessCentreAddress","doctorCount","category","wellnessCentreContactNo","longitude","latitude"
"011","DELHI/NCR","999","Virtual Dispensary","NIC CGO COMPLEX","10","alopathic","NA","NA","NA"
"011","DELHI/NCR","AY19","Dev Nagar (Ayurvedic)","Double Storey Qtrs.No.141 Block No.12, (Opposite Mother Dairy) Dev Nagar, New Delhi-5.","2","ayurvedic","25860275","77.184028625488","28.654448"
"011","DELHI/NCR","AY3","Delhi Cantt (Ayurvedic)","Sadar Bazar, Delhi Cantt,Near Geeta Asharam,New Delhi-10","2","ayurvedic","25692914","77.120765686035","28.589346"
"011","DELHI/NCR","AY31","North Avenue (Ayur)","4-MP Flats, North Avenue, New Delhi","3","ayurvedic","23092794","77.199165344238","28.618547"
"011","DELHI/NCR","AY40","AYURVEDIC WC JUNG PURA","Q.No.46, 48, 50, 52, 56, Block No. 8, Jangpura, New Delhi","2","ayurvedic","011-24312213","77.245262145996","28.582367"
"011","DELHI/NCR","AY57","R.K.Puram-V,(Sec-12)","Qr. 810, 818 – 825, Sector – XII,  R.K. Puram, New Delhi","4","ayurvedic","011-26175146","77.175804138184","28.573278"
"011","DELHI/NCR","AY60","Kingsway Camp Ayurvedic","CGHS Wellness Centre KWC, New Police Line, Kingsway Camp, Delhi","3","ayurvedic","011-27459411","77.201965332031","28.698978"
"011","DELHI/NCR","AY61","Janak Puri-I (Ayurvedic)","C-4A, Janak Puri ,Besides Janakpuri Superspeciality Hospital, New Delhi-58","3","ayurvedic","25534868","77.089332580566","28.621658"
"011","DELHI/NCR","AY63","Sadiq Nagar","CGHS Wellness Centre, Sadiq Nagar Sector-3 (Near G.K. – I), N Delhi","2","ayurvedic","011-24623767","77.226783752441","28.554974"
"011","DELHI/NCR","AY65","AYURVEDIC WC MEHRAULI BADARPUR","CGHS Wellness Centre Building, Sector – 1, M.B. Road, N. Delhi","3","ayurvedic","011-29564988","77.220932006836","28.52314"
"011","DELHI/NCR","AY67","Laxmi Nagar Ayurvedic","2nd Floor, CGHS Building Laxmi Nagar,   H-Block, Vikas Marg (Near Metro Station),Laxmi Nagar, Delhi-110092","3","ayurvedic","011-22543108/ 22466544","77.277275085449","28.630713"
"011","DELHI/NCR","AY73","AYURVEDIC WC GURGAON SEC-5","409 / Sector-5, Gurgaon","2","ayurvedic","0124-4064496","77.020248413086","28.48208"
"011","DELHI/NCR","AY76","Kalibari (Ayur)","CGHS Building, Kali bari Marg, New Delhi","3","ayurvedic","23363178","77.200057983398","28.629055"
"011","DELHI/NCR","AY80","Paschim Vihar (Ayurvedic)","Near Tagore Garden Bus Stand, Delhi-27","3","ayurvedic","25171213","77.112274169922","28.645285"
"011","DELHI/NCR","AY9","AYURVEDIC WC LODHI ROAD I(ALI GANJ)","NA","10","ayurvedic","NA","77.218933105469","28.583834"
"011","DELHI/NCR","AYHO","AYURVEDIC HOSPITAL LODHI ROAD","NA","2","ayurvedic","NA","77.220359802246","28.582735"
"011","DELHI/NCR","D1","Gole Market","CGHS Building, DIZ Area-II, Gole Market, New Delhi","4","alopathic","23743810","77.202735900879","28.634432"
"011","DELHI/NCR","D10","Lodhi Road II","Block 4-1, 3, 5, 7, Lodhi Road, New Delhi","5","alopathic","24611442","77.225112915039","28.58217"
"011","DELHI/NCR","D11","LAJPATNAGAR","CGHS Disp. Building, Lajpat Nagar Market, New Delhi.","5","alopathic","011-29816439","77.239105224609","28.572266"
"011","DELHI/NCR","D12","KIDWAI NAGAR","NA","3","alopathic","NA","77.203475952148","28.5682"
"011","DELHI/NCR","D13","Sarojini Nagar–I","XY Block, 342-346, Sarojini Nagar, New Delhi","1","alopathic","011-24670555","77.200103759766","28.577217"
"011","DELHI/NCR","D15","LAXMIBAI NAGAR","CGHS Wellness Centre, Near Navyug School, Laxmibai Nagar, Ndelhi","7","alopathic","011-26874643","77.206520080566","28.575865"
"011","DELHI/NCR","D16","Moti Bagh","CGHS Wellness Centre, Near Begum Zaidi Market, Moti Bagh, N Delhi","4","alopathic","011-24670333","77.178153991699","28.584455"
"011","DELHI/NCR","D17A","VIKAS PURI","Block-QM, Vikaspuri Police Line, New Delhi-58","5","alopathic","28533441","77.065147399902","28.63281"
"011","DELHI/NCR","D18","Pusa Road","CGHS Lab & Polyclinic No. 1,23-Pusa Road, New Delhi-5","6","alopathic","28758071, 28754318","77.18953704834","28.644466"
"011","DELHI/NCR","D19","Dev Nagar","Double Storey Qtrs.No.107,109,111,Block No.12, Opp Mother Dairy, Karol Bagh, Dev Nagar, New Delhi-5","5","alopathic","25860275","77.184028625488","28.654448"
"011","DELHI/NCR","D2","Pandara Road","D-II/365-367, Pandara Road, New Delhi","4","alopathic","23385040 23073054","77.227401733398","28.602995"
"011","DELHI/NCR","D21","Netaji Nagar","CGHS Wellness Centre Building, Netaji Nagar, New Delhi","2","alopathic","011-24670222","77.186492919922","28.572374"
"011","DELHI/NCR","D22A","Greater Noida","P3 Shopping complex, First floor, Greater Noida-201310","5","alopathic","0120-2447126","77.521240234375","28.45142"
"011","DELHI/NCR","D23","Chanakya Puri","D-II/257, 259, Vinay Marg, New Delhi","5","alopathic","24673777 24122518","77.208633422852","28.569805"
"011","DELHI/NCR","D24","KASTURBA NAGAR-I","CGHS Polyclinic, Kasturba Nagar, New Delhi","3","alopathic","011-24622867","77.224449157715","28.577652"
"011","DELHI/NCR","D26","Tilak Nagar","Tilak Nagar Near Subzi Mandi, New Delhi-18","7","alopathic","25998900","77.09846496582","28.638773"
"011","DELHI/NCR","D27","President Estate","CGHS Wellness Centre Wing, President Estate, New Delhi","4","alopathic","23094777 23092990","77.199020385742","28.6243"
"011","DELHI/NCR","D29","Nanak Pura","CGHS Wellness Centre Building, Nanakpura, New Delhi","5","alopathic","011-24670444","77.168724060059","28.58163"
"011","DELHI/NCR","D3","Delhi Cantt","Sadar Bazar, Delhi Cantt,Near Geeta Ashram,New Delhi-10","4","alopathic","25692914","77.119911193848","28.590773"
"011","DELHI/NCR","D31","North Avenue","31, North Avenue, New Delhi-1","5","alopathic","23094420","77.199653625488","28.622715"
"011","DELHI/NCR","D32","South Avenue","153, South Avenue , New Delhi-11","6","alopathic","23013490","77.199737548828","28.60824"
"011","DELHI/NCR","D33A","Jharoda Kalan","Delhi Police Training College, Jharoda Kalan, Najafgarh, Delhi-72","4","alopathic","25315364","76.960342407227","28.639637"
"011","DELHI/NCR","D34","Telegraph Lane","18-E, Telegraph Lane, New Delhi","4","alopathic","23326601 23318949","77.221832275391","28.621157"
"011","DELHI/NCR","D36A","Dwarka","Palam Dabri Road,Palam New Delhi-45 (Near Dwaraka Fly over)","10","alopathic","25056722","77.08275604248","28.59262"
"011","DELHI/NCR","D37","Sriniwas Puri","CGHS  Wellness Centre Building, Srinivaspuri, New Delhi.","3","alopathic","011-26910251","77.256156921387","28.564219"
"011","DELHI/NCR","D38","West Patel Nagr","15/23,24 Basement, West Patel Nagar, New Delhi-8","4","alopathic","25882551","77.167007446289","28.651194"
"011","DELHI/NCR","D39","Andrews Ganj","D-2, 65 & 66, Andrews Ganj. New Delhi","3","alopathic","011-26257628","77.231430053711","28.565308"
"011","DELHI/NCR","D4","Minto Road","New Minto Road Hostel, Block-I, Minto Road Complex, N.Delhi","6","alopathic","23234625","77.227073669434","28.639399"
"011","DELHI/NCR","D40","Jangpura","Q.No.46, 48, 50, 52, 56, Block No. 8, Jangpura, New Delhi","3","alopathic","011-24312213","77.245330810547","28.582262"
"011","DELHI/NCR","D41","Malviya Nagar","Delhi Senior Secondary School, Malviya Nagar, N.Delhi-110017","3","alopathic","011-26671494","77.211715698242","28.53425"
"011","DELHI/NCR","D42","Kalkaji – I","CGHS Maternity Centre Building & Disp., Kalkaji, New Delhi","6","alopathic","011-26430851","77.258293151855","28.54032"
"011","DELHI/NCR","D43","R.K.Puram I,Sec 4","Q.No.817-818,Sector – IV, R.K.Puram, New Delhi","3","alopathic","011-26175132","77.179229736328","28.56311"
"011","DELHI/NCR","D44","Dr. Zakir Hussain Road","CGHS Building, Dr. Zakir Hussain Road, New Dehli","6","alopathic","23383724","77.234680175781","28.605564"
"011","DELHI/NCR","D45","New Rajinder Ngr","CGHS Wellness Center, Shankar Rd,New Rajinder Nagar, N Delhi-60","4","alopathic","28742850","77.184494018555","28.635836"
"011","DELHI/NCR","D46","R K PURAM-II","CGHS Wellness Centre Building, R.K. Puram, Sector – II, New Delhi","7","alopathic","011-26175323","77.172782897949","28.564442"
"011","DELHI/NCR","D47","HAUZ KHAS","CGHS Wellness Centre Building, Safdarjung Dev Area, N. Delhi.","7","alopathic","011-26567844","77.202102661133","28.55045"
"011","DELHI/NCR","D48","Hari Nagar","CGHS Hari Nagar, Near DTC Depot, Hari Nagar, New Delhi-64","8","alopathic","28125518","77.104423522949","28.624546"
"011","DELHI/NCR","D49","Shahdara","CGHS Wellness Centre, Mansarovar Park, Shahdara, Delhi-32","8","alopathic","011-22583766","77.298820495605","28.681366"
"011","DELHI/NCR","D5","Paharganj","3 & 4, Chitra Gupta Road, New Delhi","5","alopathic","23587511 23561574","77.209381103516","28.64533"
"011","DELHI/NCR","D50","R K PURAM-III","NA","4","alopathic","NA","77.17342376709","28.565052"
"011","DELHI/NCR","D50A","CBI COLONY","Flat No. 59 B & 59 C,CBI Colony, Vasant Vihar, New Delhi","1","alopathic","011-26141978","77.163307189941","28.557566"
"011","DELHI/NCR","D51","CHITRA GUPTA ROAD","NA","6","alopathic","NA","77.208213806152","28.642258"
"011","DELHI/NCR","D52","RK Puram IV,Sec8","CGHS Wellness Centre Building, Sector -VIII, R.K. Puram, New Delhi","5","alopathic","011-26173988","77.166931152344","28.571602"
"011","DELHI/NCR","D53","Rajouri Garden","Near Tagore Garden Bus Stand, Delhi-27","5","alopathic","25171213","77.112274169922","28.645285"
"011","DELHI/NCR","D54","Shakur Basti","H.N. 2110, Police Chowki Gali, Multhani Mohalla, Rani Bagh, Delhi-56","7","alopathic","27021102","77.115257263184","28.689352"
"011","DELHI/NCR","D55","Inderpuri","647-648, Krishi Kunj, Inderpuri, New Delhi-12","5","alopathic","25836573","77.146148681641","28.635563"
"011","DELHI/NCR","D56","GKG WC ","F3/23,Krishna Nagar(Near Vijay Chowk),Delhi-51","6","alopathic","011-22512866","77.284027099609","28.65882"
"011","DELHI/NCR","D57","RK Puram V,Sec12","Qr. 810, 818 – 825, Sector – XII,  R.K. Puram, New Delhi","4","alopathic","011-26170472","77.175827026367","28.57319"
"011","DELHI/NCR","D58","Nangal Raya","D-Block, Janakpuri, Nangal Raya, New Delhi-46","4","alopathic","28521863","77.098762512207","28.611599"
"011","DELHI/NCR","D59","Rajpur Road","5, Rajpur Road, Old Police Line, Delhi-54","2","alopathic","011-23973646","77.216262817383","28.66859"
"011","DELHI/NCR","D6","Subzi Mandi","A 517, Shastri Nagar, Delhi110052","2","alopathic","011-23655272","77.182983398438","28.67464"
"011","DELHI/NCR","D60","Kingsway Camp","CGHS Wellness Centre, New Police Line, Kingsway Camp, Delhi","11","alopathic","011-27459411","77.198348999023","28.688356"
"011","DELHI/NCR","D61","Janakpuri-I","C-4A, Janak Puri, Near Janakpuri Superspeciality Hospital, N. Delhi-58","15","alopathic","25551434","77.089332580566","28.621658"
"011","DELHI/NCR","D62","Ashok Vihar","D-Block Phase-I, Ashok Vihar, New Delhi-52","4","alopathic","27242028","77.163703918457","28.693634"
"011","DELHI/NCR","D63","Sadiq Nagar","CGHS Wellness Centre, Sadiq Nagar Sector-3 (Near G.K. – I), N Delhi","7","alopathic","011-26255516","77.226783752441","28.554974"
"011","DELHI/NCR","D64","Tri Nagar","House No. 564, Street No. 37, Onkar Nagar-B Tri Nagar, Delhi-35","2","alopathic","27385025","77.160575866699","28.67423"
"011","DELHI/NCR","D65","M.B. Road","CGHS Wellness Centre Building, Sector – 1, M.B. Road, N. Delhi","5","alopathic","011-29564988","77.220932006836","28.523499"
"011","DELHI/NCR","D66","Palam Colony","CGHS Wellness Centre Palam Colony, New Delhi-46","8","alopathic","25035839","77.085929870605","28.590113"
"011","DELHI/NCR","D67","Laxminagar","CGHS Building, H-Block, ,Laxmi Nagar, Vikas Marg (Near Metro Station) Delhi-110092","9","alopathic","011-22543108 011-22466544","77.277275085449","28.630802"
"011","DELHI/NCR","D68","Ghaziabad","CGHS Building, Kamla Nehru Nagar, Ghaziabad, UP-201002","9","alopathic","0120-2789969","77.463691711426","28.68051"
"011","DELHI/NCR","D69","RK Puram VI,Sec 3","Qr. No. 833,837,839, Qr. No. 817, Sector –3, R.K. Puram, New Delhi","4","alopathic","011-26173911","77.179023742676","28.55421"
"011","DELHI/NCR","D7","Timarpur","CGHS Hospital/ Wellness Cenre , Lucknow Road,Timarpur, Delhi-54","7","alopathic","011-23813808","77.221290588379","28.706646"
"011","DELHI/NCR","D70","Faridabad","CGHS Building, Neighbourhood Township-4, Near Sect 21 B, Faridabad -121001","5","alopathic","0129-2412729","77.297737121582","28.405228"
"011","DELHI/NCR","D71","MUNIRKA","DDA Flat, JNU Campus, Munirka, New Delhi","3","alopathic","011-26741983","77.17024230957","28.55014"
"011","DELHI/NCR","D72","KASTURBA NAGAR-II","R. 525,526,529, 530, 533 Kasturba Nagar, New Delhi","5","alopathic","011-24622736","77.228942871094","28.575907"
"011","DELHI/NCR","D73","GURGAON","409 / Sector-5, Gurgaon","7","alopathic","0124-4064496","77.021324157715","28.482607"
"011","DELHI/NCR","D74","Janakpuri-II","C-4A, Janak Puri, Near Janakpuri Superspeciality Hospital, N. Delhi-58","3","alopathic","25619345","77.089332580566","28.621658"
"011","DELHI/NCR","D75","KALKAJI-II","Qr. LIG DDA, Flat 38-B, 42-43A, 745A, Kalkaji, New Delhi","3","alopathic","011-26028746","77.254196166992","28.529856"
"011","DELHI/NCR","D76","Kali Bari","CGHS Building, Udyan Marg, Kali Bari Marg , DIZ Area , New Delhi","5","alopathic","23743142","77.200248718262","28.62901"
"011","DELHI/NCR","D77","Mayur Vihar","264 A, Mayur Vihar, Pocket-I, Phase-I, Trilok Kunj , Delhi-110091","9","alopathic","011-22751321","77.29402923584","28.604736"
"011","DELHI/NCR","D78","DAKSHINPURI(PUSHP VIHAR)","A-B/ 125,126,127 – Sector-IV , Pusp Vihar, New Delhi","8","alopathic","011-29563193","77.22632598877","28.523653"
"011","DELHI/NCR","D79","Vivek Vihar","C-Block, Yojna Vihar, Near Mother Dairy, Delhi-110092","6","alopathic","011-22143551","77.318252563477","28.663721"
"011","DELHI/NCR","D8","Chandni Chowk","Near Moti Cinema, Chandni Chowk, Delhi-6","2","alopathic","23866892","77.235252380371","28.657497"
"011","DELHI/NCR","D80","Paschim Vihar","Qtr No A1,A2,A8, Pockt-3, Green Apartments,Paschim Vihar, Delhi-63","5","alopathic","25268410","77.102836608887","28.669004"
"011","DELHI/NCR","D81","Pitampura","Qrtr. No. 421-425 Income Tax Colony, Uttari Pitam Pura, New Delhi-34","3","alopathic","27344481","77.141181945801","28.715565"
"011","DELHI/NCR","D82","Sunder Vihar","Temporarily shifted to Paschim Vihar Wellness Center","4","alopathic","NA","77.102737426758","28.669186"
"011","DELHI/NCR","D83","Pragati Vihar","C.P.W.D. Complex, Pragati Vihar, New Delhi.","5","alopathic","24361522 24367843","77.231704711914","28.588785"
"011","DELHI/NCR","D84","Yamuna Vihar","CGHS Wellness Centre, B2 Block, Yamuna Vihar, Delhi 110053","8","alopathic","011-22565516","77.267509460449","28.701345"
"011","DELHI/NCR","D85","Noida ","R 51, Near Modern School, Sector-11, NOIDA, UP-201301.","8","alopathic","0120-2532312","77.336112976074","28.599594"
"011","DELHI/NCR","D86","Rohini-7","Near Doon Public School, Sec-7, Nanakpura, Yadav Market, Delhi-85","6","alopathic","27040169","77.118553161621","28.704813"
"011","DELHI/NCR","D87","Dilshad Garden ","Pocket-B, Near Sarvodaya Vidyalaya, Dilshad Garden, Delhi-110095","5","alopathic","22596489","77.313598632812","28.68036"
"011","DELHI/NCR","D88","Shalimar Bagh","Pocket-P, Block -B Shalimar Bagh, Delhi-88","6","alopathic","27486048","77.15461730957","28.70817"
"011","DELHI/NCR","D89","Rohini-16","Shop 4,6,7,8,9 FF, CSC-12, DDA Mkt, D-1,Sect 16 ,Rohini, Delhi-110089","7","alopathic","27894403","77.119651794434","28.704538"
"011","DELHI/NCR","D9","Aliganj,LodiRoad1","CGHS Building, Near Lodhi Road, New Delhi","4","alopathic","24611538","77.218063354492","28.580954"
"011","DELHI/NCR","D90","SARITA VIHAR","Plot No 11, Sarita Vihar, Institutional Area, Nr Telephone Exch, Delhi","4","alopathic","011-26940651","77.300666809082","28.53862"
"011","DELHI/NCR","D91","VASANT KUNJ","111-A/9, Krishan Garh, Vasant Kunj, Delhi","4","alopathic","011-26123790","77.169532775879","28.522001"
"011","DELHI/NCR","D92","Gurgaon, Sec-55","Sector-55, Opposite HUDA Market, Gurgaon","8","alopathic","0124-2578235","77.11043548584","28.426765"
"011","DELHI/NCR","D93","SUPREME COURT","NA","16","alopathic","NA","77.238380432129","28.620775"
"011","DELHI/NCR","D94","Sahibabad","6/16, Sector 2, New Rajender Nagar, Sahibabad.","4","alopathic","0120-2630066","77.350128173828","28.684004"
"011","DELHI/NCR","D95","Noida Sec-82","Community Center I, Kendriya Vihar II, Plot 3, Sec. 82,  Noida201304","5","alopathic","0120-2568899","77.391777038574","28.529837"
"011","DELHI/NCR","D96","Vasant Vihar","80-C, CPWD Colony, Vasant Vihar,New Delhi","2","alopathic","011-26146573","77.162887573242","28.55403"
"011","DELHI/NCR","D97","Indirapuram","Flat No. 01-05, Sharda Tower, Sec-4 Vaishali, Ghaziabad-UP-201010)","5","alopathic","0120-2770973","77.339797973633","28.649866"
"011","DELHI/NCR","D98","Naraina Vihar","C Block, Near Community Center, Naraina Vihar, New Delhi-110028","3","alopathic","25778775","77.143531799316","28.624996"
"011","DELHI/NCR","HO19","Dev Nagar (Homeo)","Block No. 13, Qtr no. 53 and 55,  Dev Nagar Double Storey Quarters, Dev Nagar, New Delhi-5","2","homeo","25758888","77.184173583984","28.654589"
"011","DELHI/NCR","HO24","HOMEOPATHIC WC KASTURBA NAGAR-I","CGHS Polyclinic, Kasturba Nagar, New Delhi","1","homeo","011-24622867, 24693551","77.249351501465","28.565622"
"011","DELHI/NCR","HO26","Tilak Nagar (Homeo)","Tilak Nagar, Near Subzi Mandi, New Delhi-18","2","homeo","25998900","77.09831237793","28.638943"
"011","DELHI/NCR","HO32","South Avenue (Homeo)","B 154, South Avenue, New Delhi","3","homeo","23017698","77.19864654541","28.608507"
"011","DELHI/NCR","HO42","HOMEOPATHIC WC KALKAJI-I","CGHS Maternity Centre Building & Disp., Kalkaji, New Delhi","1","homeo","011-26430851","77.260032653809","28.5397"
"011","DELHI/NCR","HO48","Hari Nagar (Homeo)","CGHS Hari Nagar, Near DTC Depot, Hari Nagar, New Delhi-64","2","homeo","28125518","77.106414794922","28.624872"
"011","DELHI/NCR","HO49","HOMEOPATHIC WC SHAHDRA","NA","1","homeo","NA","77.299354553223","28.681932"
"011","DELHI/NCR","HO57","HOMEOPATHIC WC RKP-XII","NA","3","homeo","NA","77.175849914551","28.573261"
"011","DELHI/NCR","HO67","Laxmi Nagar Homeopathic","2nd Floor, CGHS Building Laxmi Nagar, H-Block, Vikas Marg (Near Metro Station),Laxmi Nagar, Delhi-110092","2","homeo","011-22543108/ 22466544","77.276947021484","28.630806"
"011","DELHI/NCR","HO69","HOMEOPATHIC WC RKP-III","NA","3","homeo","NA","77.178848266602","28.554304"
"011","DELHI/NCR","HO7","Timarpur Homeopathic","CGHS Hospital/ Wellness Centre Timarpur, Lucknow Road, Opp. Patrachar Building, Delhi-54","2","homeo","011-23813808","77.221664428711","28.706379"
"011","DELHI/NCR","HO76","Kalibari (Homeo)","CGHS building, Kalibari Marg, New Delhi","2","homeo","23364574","77.200057983398","28.629055"
"011","DELHI/NCR","HO78","HOMEOPATHIC WC PUSHP VIHAR","A-B/ 125,126,127 – Sector-IV , Pusp Vihar, New Delhi","2","homeo","011-29563193","77.227439880371","28.523434"
"011","DELHI/NCR","PHA","PHA (ANNEXE)","NA","35","alopathic","NA","77.208457946777","28.6206"
"011","DELHI/NCR","RML","DR. RML HOSPITAL","NA","50","alopathic","NA","77.198722839355","28.624563"
"011","DELHI/NCR","SA1","SIDHA WC LODHI ROAD","NA","1","siddha","NA","77.22452545166","28.582287"
"011","DELHI/NCR","UN13","Sarojini Nagar Unani","Y-324, Sarojini Nagar, New Delhi-110023","2","unani","011-24673551","77.201316833496","28.576881"
"011","DELHI/NCR","UN28","Darya Ganj Unani","Daryaganj CGHS Wellness Centre, Sir Sayed Ahmed road, post office Wali Gali behind Golcha Cinema Delhi -110002","3","unani","011-23273043","77.235252380371","28.657492"
"011","DELHI/NCR","UN32","South Avenue (Unani)","31 MP Flats, South Avenue New Delhi","2","unani","23015125","77.199737548828","28.60824"
"011","DELHI/NCR","UN49","Shahdara Unani","CGHS Wellness Centre No. 49, Mansarovar Park, Shahdara (Near DDA Flats), Delhi-110032","1","unani","011-22583766","77.298797607422","28.680838"
"011","DELHI/NCR","UN98","Naraina Vihar (Unani)","C Block, Near Community Center, Naraina Vihar, Delhi-110028","2","unani","25778775","77.143447875977","28.624931"
"0121","MEERUT","MR1","Abu Lane","171/V, Abu Lane, Meerut Cantt.","5","alopathic","0121-2661739","77.702308654785","28.997236"
"0121","MEERUT","MR2","Shastri Nagar","G-Block, Shastri Nagar, Meerut","2","alopathic","0121-2641320","77.732116699219","28.95477"
"0121","MEERUT","MR3","Vijay Nagar","154, Western Kutchery Road, Vijay Nagar, Meerut","1","alopathic","0121-2640074","77.704414367676","28.98993"
"0121","MEERUT","MR4","Kanker Khera","Shradhapuri, Kanker Khera, Meerut Cantt.","7","alopathic","0121-2556394","77.684211730957","29.030275"
"0121","MEERUT","MR5","S K Road","Swasthya Bhawan, S.K. Road, Meerut","7","alopathic","0121-2763159","77.720962524414","28.974173"
"0121","MEERUT","MR6","Lekha Nagar","DAD Quarters, Lekha Nagar, Meerut Cantt","3","alopathic","0121-2647895","77.706260681152","29.01349"
"0121","MEERUT","MRA1","AbuLane Meerut","NA","2","ayurvedic","NA","77.702239990234","28.997238"
"0121","MEERUT","MRH3","Vijay Nagar Meerut","NA","1","homeo","NA","77.709587097168","28.986092"
"0135","DHERADUN","DD1","CGHS Milan Vihar Wellness Centre","20-Navyug Enclave, Indrapuram, Phase-III, Milan Vihar GMS Road Dehradun (Uttarakhand).","3","alopathic","0135-2726820","78.039535522461","30.328388"
"0135","DHERADUN","DD2","P & T Wellness Centre","P & T Colony, Chukhuwala, Chakrata Road Dehradun (Uttarakhand).","3","alopathic","0135-2653166","78.01203918457","30.310898"
"0141","JAIPUR","JA1","Chaura Rasta","1st Floor, Chandan Mahal, Chaura Rasta, Jaipur","2","alopathic","0141-2329927","75.821136474609","26.918316"
"0141","JAIPUR","JA2","JANTA COLONY","NA","3","alopathic","NA","75.836952209473","26.907198"
"0141","JAIPUR","JA3","Bajaj Nagar","A.G.Colony, Bajaj Nagar, Jaipur","5","alopathic","0141-2710084","75.80387878418","26.874372"
"0141","JAIPUR","JA4","BANI PARK","D-143/A-2, Kaushalya Path, Basant Marg, Banipark, Jaipur","6","alopathic","0141-2207708","75.786041259766","26.926512"
"0141","JAIPUR","JA5","Jyoti Nagar","Income Tax Colony, Jyoti Nagar, Jaipur","6","alopathic","0141-2743263","75.795593261719","26.89531"
"0141","JAIPUR","JA6","GSI Colony","G.S.I. Colony, Malviya Nagar, Jaipur","5","alopathic","0141-2755732","75.818283081055","26.84535"
"0141","JAIPUR","JA7","VIDHYADHAR NAGAR","Custom & Central Excise Colony, Vidhyadhar Nagar, Jaipur","6","alopathic","0141-2335850","75.785720825195","26.966885"
"0172","CHANDIGARH","CG1","Chandigarh","Old U.T., Polyclinic Building, Sector 45C,Chandigarh 160046","7","alopathic","0172-2630692","76.760932922363","30.70427"
"0177","SHIMLA","SL1","SHIMLA","NA","2","alopathic","NA","77.147415161133","31.103388"
"0191","JAMMU","JT01","Jammu","Exhibition Ground, Dogra Chowk, Jammu ( J & K)","3","alopathic","0194-2520777","74.858489990234","32.72272"
"020","PUNE","PU01","Akurdi","GPRA QuarterNo.4/182,Central Govt. Colony Sector No.26,Pradhikaran,Akurdi, Pune – 411 044.","5","alopathic","020-27640130","73.764999389648","18.651558"
"020","PUNE","PU02","Phulenagar","GSI Colony, Phulenagar,Pune-411 006.","3","alopathic","020-26685960","73.821502685547","18.551428"
"020","PUNE","PU03","Camp","Chitragupta Complex, Hidayatullah Road, Pune-411 042.","3","alopathic","020-26455163","73.874458312988","18.50474"
"020","PUNE","PU04","Kasba Peth","Agneya”, 1st FloorPhadke Haud Chowk1422, Kasba PethPune 411 011.","1","alopathic","020-25652045","73.859901428223","18.51888"
"020","PUNE","PU05","Ganeshkhind Road","Armament Colony, Ganeshkhind Road, Pune-411 020.","7","alopathic","020-25652045","73.821029663086","18.551151"
"020","PUNE","PU06","Range Hills","Bldg No.296, Range Hills Estate, Range Hills,Pune-411 020.","4","alopathic","020-25819776","73.841209411621","18.550385"
"020","PUNE","PU07","Mukundnagar","Ground Floor, Swasthya Sadan, Mukundnagar, Pune-411 037.","6","alopathic","020-24266402","72.856430053711","19.017027"
"020","PUNE","PU08","Bajirao Road","Anandi 1304,Shukrawar Peth,Near Wadia Hospital, Bajirao Road, Pune – 411 002.","2","alopathic","020-24471602","73.874549865723","18.55219"
"020","PUNE","PU09","G.T.Road","6, G.T.Road, Pune-411 001","2","alopathic","020-26360020","73.879707336426","18.515316"
"020","PUNE","PU10","PUNE Polyclinic","NA","5","alopathic","NA","73.859367370605","18.494251"
"020","PUNE","PUA7","Ayurvedic Mukund Nagar","NA","2","ayurvedic","NA","73.857162475586","18.493698"
"020","PUNE","PUH3","Homeopathic Camp Pune","NA","1","homeo","NA","73.87451171875","18.504625"
"020","PUNE","PUH5","Homeopathic Boys battalion Pune","NA","2","homeo","NA","73.819808959961","18.551321"
"022","MUMBAI","MU1","CGO New Marine Lines","Old CGO Building, M.K. Road, (Pratishtha Bhavan) Mumbai-400 020","6","alopathic","022– 22018799","72.827964782715","18.938894"
"022","MUMBAI","MU10","Bandra","Plot NO. 215 31, road, Off Linking Road, Bandra (W)Mumbai – 400 050","1","alopathic","022–26428114","72.83659362793","19.059433"
"022","MUMBAI","MU11","Byculla","Khan Mansion, Flat No.1, 15 Victoria Road Byculla, Mumbai – 400 027","1","alopathic","022–23722150","72.835624694824","18.97616"
"022","MUMBAI","MU12","Ambarnath","Old primary School, Ordinance Estate, Ambarnath, Thane 421502","8","alopathic","0251–2600858","73.185966491699","19.212654"
"022","MUMBAI","MU13","CBD Belapur","Ekta Vihar, Type V, Nerul, Navi Mumbai.","7","alopathic","022–27522287","73.028305053711","19.026836"
"022","MUMBAI","MU14","WAKOLA","P & T Colony, Vakola Mumbai – 400 029","2","alopathic","022–26650366","72.857559204102","19.08297"
"022","MUMBAI","MU15","Deonar","Deonar Post Office Bldg Telecom Factory, Town ship compound, Deonar,Mumbai – 400 088","2","alopathic","022–25512137","72.91854095459","19.045315"
"022","MUMBAI","MU16","OSHIWARA","Flat No.3 & 4, Building No. 31, Tata Communication (TCL) Colony, Near Oshiwara, Jogeswari (W), Mumbai","1","alopathic","022-26326612","72.832183837891","19.150515"
"022","MUMBAI","MU17","Bhandup","Flat No. 321 & 322, Type – IV Cite C, Central Govt. Qrts,Bhandup, Mumbai-400 078","3","alopathic","022–25619655","72.941078186035","19.142601"
"022","MUMBAI","MU19","Mulund","B/2, Type-II P & T. Colony,Mulund(W), Mumbai-400 080","2","alopathic","022–25616267","72.944244384766","19.172121"
"022","MUMBAI","MU2","Peddar Road","Income Tax Flats, No. D-1 Pedder Road, Mumbai-400 026","2","alopathic","022–23516680","72.810279846191","18.972956"
"022","MUMBAI","MU20","Kandivali","D-1/2, Lekha Vihar,Sector 5, Charkop, Kandivli (West),Mumbai – 400 067.","5","alopathic","022–28677353","72.823104858398","19.215654"
"022","MUMBAI","MU21","Sahar, Andheri (W)","P&T Colony, Sahar, Mumbai – 400 029","3","alopathic","022–28210959","72.859855651855","19.10255"
"022","MUMBAI","MU22","Sheikh Mistry, Koliwada","Shaikh Mistry, S.M. Plot, Kolowada,Mumbai-400 037","5","alopathic","022–24015758","72.86833190918","19.02878"
"022","MUMBAI","MU23","Parel","Govt. Mint Colony, Bldg No.20 Flat No. 41-43, Saibaba Marg, Mint Staff Qtrs, Parel, Mumbai – 400 012","2","alopathic","022–24187276","72.843238830566","18.99578"
"022","MUMBAI","MU24","KUJURMARG, POWAL","Naval Armament Depot campus, Kujurmarg, Powal, Mumbai – 400 078","3","alopathic","022–25784026","72.923355102539","19.126501"
"022","MUMBAI","MU26","Seepz","Seepz Qtrs Complex, Qtrs. No. C-1, C-2, Andheri (E),Mumbai 400 096.","2","alopathic","022–28365751","72.875511169434","19.128706"
"022","MUMBAI","MU27","Nepean Sea Road","Hyderabad Estate, N.S. Road, Mumbai – 400 006","2","alopathic","022–23641816","72.800346374512","18.956367"
"022","MUMBAI","MU28","Juhu","Telecom Complex, Juhu Tara Road, Santacruz(W),  Mumbai.","3","alopathic","022–26601744","72.857269287109","19.103073"
"022","MUMBAI","MU3","Worli","25-C, Sea Face, Opp. Flora Hotel,Thadani Marg, Worli, Mumbai-400 018.","2","alopathic","022–24932909","72.813682556152","19.003506"
"022","MUMBAI","MU5","SANTAKRUZ","Near Airport Colony,Bamanawada,Santacruz(w), Mumbai – 400 029","10","alopathic","022–28210971","72.857276916504","19.103624"
"022","MUMBAI","MU6","Ghatkopar","Flat No. 25, Central Govt.Qurts, Ghatkopar, Mumbai – 400 086","11","alopathic","022–25149229","72.909286499023","19.090258"
"022","MUMBAI","MU7","WADALA","C.G.S. Qtrs, Flat 226-227, Type-IV, Wadala, Mumbai-400 031","3","alopathic","022–24124515","72.855796813965","19.017803"
"022","MUMBAI","MU8","Koliwada","Bldg.No.21, Sectior-1, Kane Nagar,Mumbai-400037","8","alopathic","022–24013694","72.86637878418","19.029572"
"022","MUMBAI","MU9","CLI Sion","Central Labour Inst. Premises, Trombay Road,(Sion), Mumbai-400 022.","3","alopathic","022–24081616","72.866775512695","19.04969"
"033","KOLKATA","KO1","Belvedere","Flat no. 68, Belvedere Estate, Kolkata – 700 027.(Near Alipore Zoo/Command Hospital)","4","alopathic","24791153","88.346549987793","22.52668"
"033","KOLKATA","KO10","BBD Bag","5, Esplanade East (Ground Floor),Kolkata 700069. (Opposite to CTC tram Depot, Esplanade)","6","alopathic","22622030","88.349876403809","22.566198"
"033","KOLKATA","KO11","Santagachi","Govt. of India Press Colony,Santragachi, Howrah-711321.(Near Jagacha Police Station)","3","alopathic","26571526","88.280181884766","22.593863"
"033","KOLKATA","KO12","Salt Lake AF","Bidhan Nagar AF Block Sec.-I, Flat No. 209 & 210.Kolkata – 700064","3","alopathic","23374635","88.421539306641","22.598293"
"033","KOLKATA","KO13","Airport","New Quarters,Dum Dum, Kolkata 700052. (Nr. Airport Gate no-1)","7","alopathic","25119442","88.426300048828","22.63621"
"033","KOLKATA","KO14","Lake Town","P – 112, Kalindi Housing Scheme, Kolkata-700089. (Near Kalindi Bus stop)","4","alopathic","25222137","88.402359008789","22.608047"
"033","KOLKATA","KO15","Tollygunj","Tollygunge C.G. Qrts. Ground FloorKolkata – 700 040. (Opposite to Malancha Cinema Hall )","6","alopathic","24116059","88.35319519043","22.489405"
"033","KOLKATA","KO16","Salt Lake EB","Qrts. Nos. 81 & 82 Type CKolkata – 700064.","2","alopathic","23344849","88.407157897949","22.586054"
"033","KOLKATA","KO17","Kudghat","51 – A, Gangapuri, Purbaputiari,  Kolkata 7000 93. (Near Kudghat Bazar)","2","alopathic","24311328","88.347091674805","22.479055"
"033","KOLKATA","KO18","Salt Lake IC","I C Block CGHS Complex, Type (IV) Qrts. Nos. 1 & 2, Sector-I, Salt Lake, Kolkata – 700106.   (Near Tank No -14)","4","alopathic","23353427","88.414482116699","22.571302"
"033","KOLKATA","KO19","POLYCLINIC","NA","8","alopathic","NA","88.412666320801","22.573519"
"033","KOLKATA","KO2","Lake Area","Lake Govt. Qrts. Fl. No. 55 & 56 Southern Ave., Kolkata – 700029.     (Near Kamala Girl’s School / Vivekananda Park)","3","alopathic","24661733","88.358222961426","22.514097"
"033","KOLKATA","KO3","Doverlane","Flat No. 2/D  Dover Lane Govt. Qrts.  Kolkata – 700029.   (Near Gariahat Police Station)","9","alopathic","24619292","88.35807800293","22.518232"
"033","KOLKATA","KO4","Narkeldanga","Flat No. 27 & 28 Narkeldanga Govt. Qrts. Kolkata – 700054.  (Opposite to Phool Bagan Police Station)","4","alopathic","23203998","88.39266204834","22.573692"
"033","KOLKATA","KO5","Shyambazar","7-A Kalachand Sanyal Lane,  Kolkata – 700004.     (Opposite to Shyambazar Tram Depot)","5","alopathic","25556385","88.373489379883","22.599861"
"033","KOLKATA","KO6","Regent Estate","102, Regent Estate,Kolkata – 700092.(Near sulekha bus stand)","4","alopathic","24125528","88.399871826172","22.51736"
"033","KOLKATA","KO7","B/ Kalighat","1 – A, Satish Mukherjee Road, Kolkata-700026. (Opposite to Basushree Cinema Hall, Near Jatin Das Park Metro Station)","4","alopathic","24641852","88.347503662109","22.522116"
"033","KOLKATA","KO8","Bidhan Sarani","168, Bidhan Sarani, Kolkata – 700006. (Near Hedua)","3","alopathic","25558034","88.367286682129","22.699827"
"033","KOLKATA","KO9","Mint Colony","9, Mint Guard House,Kolkata – 700053.(Near India Govt. Mint, Majherhat)","7","alopathic","24010558","88.319763183594","22.514448"
"03592","GANGTOK","GK1","Gangtok","NA","1","alopathic","NA","88.606460571289","27.344988"
"0361","GUWAHATI","GT1","Hengrabari","Shankardev Nagar,Near Housing Colony,Hengrabari,Guwahati-781006","6","alopathic","0361-2269743+919435195800","94.091903686523","25.665863"
"0361","GUWAHATI","GT2","Narengi","Mrs.Jonali Kalita,W/o Dr. Hiren Kalita, 1 No Madgharia, Narengi,Tiniali,Guwahati-781026","3","alopathic","+919854046451","91.820793151855","26.175413"
"0361","GUWAHATI","GT3","Gotanagar","H/o Gokul Ch. Deka,H.No-6, P.N.G.B. Road, In front of Guwahati Nursery, Gotanagar,Guwahati-781033","2","alopathic","0361-2670255","91.674942016602","26.13751"
"0361","GUWAHATI","GT4","Panbazar","Panbazar,In front of Don Bosco School,Guwahati-781001","2","alopathic","0361-2540551","91.745620727539","26.185768"
"0361","GUWAHATI","GT5","Beharbari","A.G. Residential Complex, Beharbari,Guwahati-781029","4","alopathic","7896020538","91.772834777832","26.115187"
"0361","GUWAHATI","GT6","GUWAHATI HOMEO 1","NA","2","homeo","NA","91.788162231445","26.146744"
"0364","SHILLONG","SH1","Wellness Centre Laitumkhrah","Chief Medical Officer Incharge,CGHS Wellness Centre No.1, Laitumkhrah, Shillong-793003, Meghalaya","3","alopathic","0364-2501569","91.902336120605","25.567507"
"0364","SHILLONG","SH2","Wellness Centre Opp. Raj Bhawan","Chief Medical Officer Incharge,CGHS Wellness Centre No.2, Opp. Raj Bhawan, Shillong-793001, Meghalaya","2","alopathic","0364-2504451","91.886840820312","25.5722"
"0381","AGARTALA","AG1","Agartala","NA","2","alopathic","NA","91.285575866699","23.862661"
"0385","IMPHAL","IM1","Imphal","NA","2","alopathic","NA","93.951591491699","24.797945"
"0389","AIZWAL","AZ1","AiZwal","NA","2","alopathic","NA","92.71346282959","23.721273"
"040","HYDERABAD","HY1","Charminar","22-1-951 Noor Khan Bazaar, Hyderabad","5","alopathic","040-24525415","78.486175537109","17.373007"
"040","HYDERABAD","HY10","AG’S Colony","AG’S Colony, Vikaspuri, Hyderabad","7","alopathic","040-23810449","78.4306640625","17.449778"
"040","HYDERABAD","HY11","Kakatiyanagar","Hostel Suite No. 1 to 8, Hostel Complex, GPRA Quarters, Gachibowli, Hyderabad","5","alopathic","040-23002454","78.356460571289","17.438862"
"040","HYDERABAD","HY12","Dilsukhnagar","H.No.11-7-205(4/A), HUDA Colony, Saroor Ngr, Hyderabad-500035","5","alopathic","040-24046333","78.585098266602","17.363522"
"040","HYDERABAD","HY13","Tarnaka","Street No.5, Tarnaka, Secunderabad-500017","6","alopathic","040-27019223","78.558563232422","17.402079"
"040","HYDERABAD","HY2","Humayunnagar","Sharadanagar Colony, Gudimal Kapur, Hyderabad-500028","7","alopathic","040-23531833","78.439331054688","17.38202"
"040","HYDERABAD","HY3","Secunderabad","Ground Floor, CGO Towers, Kavadiguda, Secunderabad","8","alopathic","040-27708898","78.493865966797","17.423944"
"040","HYDERABAD","HY4","Begumpet","Kendriya Swasthya Bhavan, Be Gumpet, Hyderabad-500016","9","alopathic","040-27904259","78.472442626953","17.445042"
"040","HYDERABAD","HY5","Himayatnagar","Oilseeds Quarters Type-1, Behind Lady Hydri Club, Himayatnagar, Hyderabad-500029","6","alopathic","040-23220454","78.477882385254","17.40563"
"040","HYDERABAD","HY6","Kachiguda","Kendriya Sadan, Sultan Bazar Koti, Hyderabad-500095","5","alopathic","040-2473901","78.487945556641","17.386848"
"040","HYDERABAD","HY7","Malakpet","H.No.16-3-994/1/A/1, Opp.Officers Mess, New Malakpet, Hyderabad-500036","4","alopathic","040-27529090","78.501121520996","17.371193"
"040","HYDERABAD","HY8","Kanchanbagh","DRDO Complex Kanchanbagh,Hyderabad-500058","9","alopathic","040-24340299","78.505882263184","17.337795"
"040","HYDERABAD","HY9","Alwal","Pempala Towers, Old Alwal, Secunderabad","5","alopathic","040-27972563","78.506202697754","17.50906"
"0413","PONDICHERRY","PD1","PUDUCHERRY","NA","2","alopathic","NA","79.796195983887","11.939653"
"044","CHENNAI","CH01","ADYAR","26th Cross Street Cpwd Qtrs Indira Nagar Adyar","3","alopathic","044-23458401","80.253433227539","12.991768"
"044","CHENNAI","CH02","ANNA NAGAR","Central Revenue Qtr No 15 Ranganathan Garden Anna Nagar","7","alopathic","044-23458402","80.20435333252","13.088988"
"044","CHENNAI","CH03","AVADI","Heavy Vehicles Factory Complex Avadi ","6","alopathic","044-23458403","80.106117248535","13.1238575"
"044","CHENNAI","CH04","GOPALAPURAM","No 1  1st Street Gopalapuram Chennai","2","alopathic","044-23458404","80.261512756348","13.04461"
"044","CHENNAI","CH05","GUINDY","Block No 6/1-5 Bcg Staff Quarters Guindy ","2","alopathic","044-23458405","80.221733093262","13.010337"
"044","CHENNAI","CH06","KK NAGAR","Cpwd Quarters Kk Nagar Chennai 600078","12","alopathic","044-23458406","80.207878112793","13.036907"
"044","CHENNAI","CH07","MEENAMBAKKAM","DGQA Complex Meenambakkam Chennai ","4","alopathic","044-23458407","80.176445007324","12.980883"
"044","CHENNAI","CH08","NANDAMBAKKAM","No 16-19 Cda Res Complex Nandambakkam","1","alopathic","044-23458408","80.195114135742","13.01473"
"044","CHENNAI","CH09","NUNGAMBAKKAM","C&B Block 1st Floor Shastri Bhavan Haddows Rd","3","alopathic","044-23458409","80.248046875","13.066692"
"044","CHENNAI","CH10","PERAMBUR","No 1, SRP KOIL STREET, AGARAM JUNCTION, PERAMBUR, CHENNAI","5","alopathic","NA","80.231666564941","13.116081"
"044","CHENNAI","CH11","RA PURAM","No 6 Kamaraj Saalai Ra Puram Chennai ","2","alopathic","044-23458411","80.259689331055","13.021473"
"044","CHENNAI","CH12","ROYAPURAM","No 108,109 Mannar Swami Koil St Royapuram","4","alopathic","044-23458412","80.294654846191","13.101272"
"044","CHENNAI","CH13","TRIPLICANE","No 54 Akbar Sahib St Triplicane Chennai ","2","alopathic","044-23458413","80.286636352539","13.069741"
"044","CHENNAI","CH14","VEPERY","NO 10 Vasu Street , Backside of EGA Theatre .Kilpauk Chennai 600010","1","alopathic","044-23458414","80.240783691406","13.079123"
"0471","TRIVANDRUM","TR1","Kesavadasapuram","TC 3/120, Kesavadasapuram, Thiruvananthapuram","3","alopathic","0471-2443452","76.940719604492","8.533119"
"0471","TRIVANDRUM","TR2","Sasthamangalam","TC 9/1580,      ""Mangalya""     Hospital Road, Sasthamangalam Trivandrum-695010","2","alopathic"," 0471-2728110","76.94612121582","8.533302"
"0471","TRIVANDRUM","TR3","Vanchiyoor"," TC 25/2893, Dharmadasham Lane, Vanchiyoor, Trivandrum 695035","3","alopathic"," 0471-2471143","76.94612121582","8.533302"
"0512","KANPUR","KN1","Saket Nagar","127/924, W-1, Saket Ngr, (Near Sushila Nursing Home), Kanpur","3","alopathic","0512-2666240","80.317657470703","26.435453"
"0512","KANPUR","KN2","R. K. NAGAR","110/58, R.K. Nagar, Kanpur","2","alopathic","0512-2542379","80.319633483887","26.470814"
"0512","KANPUR","KN3","Civil Lines","15/45 (A&B) Civil Lines, Kanpur","2","alopathic","0512-2306876","80.34627532959","26.475863"
"0512","KANPUR","KN4","Khapra Mohal","E-45, Khapra Mohal, Kanpur","2","alopathic","0512-2322924","80.35733795166","26.455675"
"0512","KANPUR","KN5","Kendranchal","Gulmohar Vihal, kendranchal Colony,Naubasta, Kanpur","5","alopathic","0512-2618122","80.342697143555","26.400698"
"0512","KANPUR","KN6","Raksha Vihar","Single JCOs Quarter, Raksha Vihar, Shyam Nagar, Kanpur","5","alopathic","0512-2424311","80.361404418945","26.422136"
"0512","KANPUR","KN7","Pandu Nagar","117/H-2/28, Pandu Nagar, Kanpur","3","alopathic","0512-2217339","80.29418182373","26.472935"
"0512","KANPUR","KN8","Azad Nagar","A/186, Azadnagar, Kanpur","3","alopathic","0512-2560272","80.306259155273","26.500862"
"0512","KANPUR","KN9","Ratan Lal Nagar","Plot No.8-11, Ratan Lal Nagar, Kanpur","8","alopathic","0512-2283399","80.287391662598","26.444014"
"0522","LUCKNOW","LK1","Lucknow 1","NA","7","alopathic","NA","80.99488067627","26.863432"
"0522","LUCKNOW","LK10","AYURVEDIC LUCKNOW","NA","2","ayurvedic","NA","80.947494506836","26.83356"
"0522","LUCKNOW","LK2","Lucknow2","Sky Lark Building, Nawal Kishore Road, Lucknow","4","alopathic","0522-2613763","80.951431274414","26.886131"
"0522","LUCKNOW","LK3","Lucknow3","CPB/G Prem Plaza, Kanpur Road, LDA Colony, Lucknow","8","alopathic","0522-2421992","80.904441833496","26.79093"
"0522","LUCKNOW","LK4","Lucknow4","C-3335, Meena Bakery Road Rajajipuram, Lucknow 226017","3","alopathic","0522-2421931","80.884719848633","26.843386"
"0522","LUCKNOW","LK5","Lucknow5","12-B Mall Avenue, Lucknow 226001","6","alopathic","0522-2235139","80.947494506836","26.83356"
"0522","LUCKNOW","LK6","Lucknow6","1/10 Sector A, Sitapur Rd, Aliganj Lucknow 226024","7","alopathic","0522-2745246","80.94458770752","26.904528"
"0522","LUCKNOW","LK7","GOL Market","1st Flr,P Office Campus, Mahanagar Gol Market, Lucknow 226020","4","alopathic","0522-2321432","80.959396362305","26.873436"
"0522","LUCKNOW","LK8","PMG Office Hazaratganj","Hazratganj GMT Office Lucknow 226001","4","alopathic","0522-2230077","80.915664672852","26.86548"
"0522","LUCKNOW","LK9","Aishbagh","Aishbagh P&T Dispensary Lucknow","3","alopathic","0522-2251392","80.90119934082","26.848011"
"0532","ALLAHABAD","AL01","Jawahar Lal Nehru Road","41, Jawahar Lal Nehru Road, Allahabad","4","alopathic","0532-2468188","81.863235473633","25.451668"
"0532","ALLAHABAD","AL02","Drummond","4/6, Drummond, Allahabad","3","alopathic","0532-2624435","81.82738494873","25.450512"
"0532","ALLAHABAD","AL03","Kalyani Devi","1130/1130A Kalyani Devi, Allahabad","2","alopathic","0532-2242530","81.833854675293","25.42972"
"0532","ALLAHABAD","AL04","New Katra","38 A, Beli Road, New Katra, Allahabad","4","alopathic","0532-2642457","81.853408813477","25.47363"
"0532","ALLAHABAD","AL05","Kendranchal Colony","NA","3","alopathic","NA","81.777359008789","25.454859"
"0532","ALLAHABAD","AL06","Leader Road","46/38 Leader Road, Allahabad","2","alopathic","0532-403822","81.83309173584","25.443272"
"0532","ALLAHABAD","AL07","Naini","236/101-C /1 Chok Daud Nagar Near Swadeshi Cotton Mills, Naini, Allahabad","3","alopathic","0532-2697132","81.869728088379","25.39662"
"0532","ALLAHABAD","AL08","CGHS Polyclinic Sangam Place","2nd Floor, Sangam Place, Civil Lines, Allahabad","5","alopathic","0532-2560578","81.830520629883","25.450197"
"0532","ALLAHABAD","ALA1","AYURVEDIC UNIT","NA","3","ayurvedic","NA","81.830924987793","25.449434"
"0532","ALLAHABAD","ALH1","HOMEO UNIT","NA","1","homeo","NA","81.830924987793","25.449434"
"0612","PATNA","PA1","Budhmarg","Budhmarg, Patna-800001","7","alopathic","0612-2221479","85.133659362793","25.607672"
"0612","PATNA","PA2","Kankarbagh","G-3, People's Cooperative Colony, Kankarbagh, Patna-800020","3","alopathic","0612-2351484","85.153518676758","25.603031"
"0612","PATNA","PA3","Salimpur Dumra","Central Revenue Colony, Salimpur Dumra, Ashiana Nagar, Patna","6","alopathic","0612-2582998","85.084213256836","25.617695"
"0612","PATNA","PA4","Boring Canal Road","Krishna Ashram, Plot No. 1091, East Boring Canal Road, Patna-800001","2","alopathic","0612-2532816","85.123092651367","25.61814"
"0612","PATNA","PA5","SURYANCHAL BHANDRA GHAT","NA","2","alopathic","NA","85.206169128418","25.60989"
"0651","RANCHI","RA1","NEW AG COLONY, DORANDA","New A.G. Colony Doranda, Ranchi, Jharkhand","7","alopathic","0651-2481901","85.31861114502","23.343538"
"0651","RANCHI","RA2","KANTA TOLI","10 A Deep Villa, Purulia Road, Ranchi, Jharkhand","4","alopathic","0651-2530244","85.343315124512","23.364851"
"0651","RANCHI","RA3","P and T COLONY LALPUR","P & T Colony, Lalpur, Ranchi, Jharkhand","2","alopathic","0651-2562333","85.340263366699","23.374857"
"0674","BHUBANESHWAR","BH1","OLD AG COLONY","Old A.G. Colony, Unit-IV,Bhubaneswar-751001","5","alopathic","0674-2393612","85.829437255859","20.279497"
"0674","BHUBANESHWAR","BH2","KHARAVELA NAGAR","Kharvel Nagar, Unit-III,Bhubaneswar-751001","2","alopathic","0674-2393545","85.835983276367","20.272116"
"0674","BHUBANESHWAR","BH3","PMG Square","Near PMG Square Bhubaneswar 751001","2","alopathic","0755- 2566977","85.835983276367","20.274715"
"0712","NAGPUR","NP1","Katol Road","CPWD Colony, Katol Road, Nagpur-440013","6","alopathic","0712-2581773","79.066459655762","21.169672"
"0712","NAGPUR","NP2","Civil Lines","Opposite CBI Quarters, Civil Lines, Nagpur-440001","2","alopathic","0712-2560310","79.057464599609","21.158367"
"0712","NAGPUR","NP2A","Seminary Hills","Swasthya Bhawan, Near TV Tower Seminary Hills Nagpur-440006.","5","alopathic","0712-2511398","79.057510375977","21.15836"
"0712","NAGPUR","NP3","PANCH PAOLI","NA","3","alopathic","NA","79.100326538086","21.173529"
"0712","NAGPUR","NP4","Itwari","Patel Building, Opp Prakash High School, Queta Colony Bus Stop, Lakadganj, Nagpur-440008","2","alopathic","0712- 2564600","79.118995666504","21.151142"
"0712","NAGPUR","NP5","MEDICAL SQUARE","NA","3","alopathic","NA","79.097015380859","21.131998"
"0712","NAGPUR","NP6","SHANKAR NAGAR","Himalaya Meridian Aptt, Opp LAD College, Shivaji Nagar, Nagpur-440010","3","alopathic","0712-2249781","79.056648254395","21.134077"
"0712","NAGPUR","NP7","Sitabuldi","Zero Miles, Near RBI Square, Beside Speed Post Office, Nagpur-440001","3","alopathic","0712- 2565169","79.080551147461","21.15101"
"0712","NAGPUR","NP8","Sai Mandir","Laxman Aptt, Beside Sai Mandir, Wardha Road, Nagpur-440015","4","alopathic","0712- 2226516","79.069778442383","21.112846"
"0712","NAGPUR","NP9","Sakkardara","Plot No. 470, Chaudhary Bhawan, Near Tiranga Chowk, Sakkardara, Nagpur-440024","3","alopathic","0712- 2749379","79.116355895996","21.130936"
"0712","NAGPUR","NPA2","AYURVEDIC WC No. 2 NAGPUR","NA","2","ayurvedic","NA","79.057464599609","21.158367"
"0712","NAGPUR","NPA5","AYURVEDIC WC No. 5 NAGPUR","NA","2","ayurvedic","NA","79.097015380859","21.131998"
"0712","NAGPUR","NPH2","HOMEOPATHIC WC No. 2 NAGPUR","NA","2","homeo","NA","79.057464599609","21.158367"
"0712","NAGPUR","NPPO","NAGPUR POLYCLINIC","NA","7","alopathic","NA","79.067153930664","21.169594"
"0731","INDORE","IN1","INDORE1","NA","3","alopathic","NA","75.885894775391","22.711237"
"0755","BHOPAL","BP1","Jahangirabad","Central Govt. Health Scheme W.C No. 1, Police ITI Building, Jahangirabad, Bhopal (M.P)-462008","3","alopathic","0755-2765071","77.416221618652","23.245274"
"0755","BHOPAL","BP2","Vasant Kunj","House No. 2 Vasant Kunj E 8 Arera Colny Near Canara Bank Bhopal MP 462039","4","alopathic","0755- 2566977","77.434722900391","23.200207"
"0761","JABALPUR","JB1","JABALPUR 1","NA","5","alopathic","NA","79.924438476562","23.161173"
"0761","JABALPUR","JB2","I.B.M. Colony","Qtr. NO. 9-12, Type III, I.B.M. Colony, Kamla Nehru Nagar, Jabalpur","6","alopathic","0761 2416805","79.910469055176","23.167952"
"0761","JABALPUR","JB3","Westland OFK-Extn. Counter of Wellness Centre no. 3","Qtr. No.MT/2,  TypeV,Westland OFK, Jabalpur","4","alopathic","2430018","79.985572814941","23.188099"
"0761","JABALPUR","JB4","Head Post Office","Head Post Office Compound, Jabalpur","4","alopathic","2629460","79.955154418945","23.161499"
"0761","JABALPUR","JB5","CGHS WC 5 JABALPUR","NA","4","alopathic","NA","80.011009216309","23.204065"
"079","AHMEDABAD","AH01","Ashram Road","1st Floor, S.R.House, Opp. Mount Carmel School,Ashram Road, Ahmedabad.380009","5","alopathic","079 26577393","72.569244384766","23.035246"
"079","AHMEDABAD","AH02","Shahalam","Block No 34/285 to 289, Govt.F Colony, A. G. Staff  Qtrs, Shalam Tolnaka, Ahmedabad","2","alopathic","079 25393262","72.591529846191","22.999426"
"079","AHMEDABAD","AH03","Navrangpura","1, Jeevan Prakash Society, Nr. St. Xaviers High School Road Nr Darpan Six Road,Navrangpura","3","alopathic","079 26430021","72.552833557129","23.0451"
"079","AHMEDABAD","AH04","Pragatinagar","Qtr No. M/49/289-290 Pragatinagar, Ahmedabad","4","alopathic","079 27478393","72.554763793945","23.066833"
"079","AHMEDABAD","AH05","Meghaninagar","Block No. 68/1615 to1620 A. G. Staff Qtrs, Meghaninagar, Ahmedabad","2","alopathic","079 22680487","72.617980957031","23.054527"
"079","AHMEDABAD","AH07","Gandhingar","Block no 704/2,sector-8 Gandhinagar","2","alopathic","079 23243433","72.648986816406","23.210667"
"079","AHMEDABAD","AH08","Laldarwaja","GPO Compound, Laldarwaj, Mirzapur,Ahmedabad","4","alopathic","079 25506622","72.58381652832","23.027882"
"079","AHMEDABAD","AH09","Maninagar","1st floor,Ram bag post office,Rambag,Maninagar, Ahmedabad","3","alopathic","079 25467055","72.601043701172","22.998863"
"079","AHMEDABAD","AH10","Bopal","AG Govt. Quarters,Block No A(1), QuarterSN 1 B/H Sun City, S P ring road, Bopal,Ahmedabad","1","alopathic","02717-243144","72.476913452148","23.026167"
"079","AHMEDABAD","AHA1","AYURVEDIC ASHRAM ROAD","NA","1","ayurvedic","NA","72.569221496582","23.035265"
"079","AHMEDABAD","AHA7","AYURVEDIC GANDHI NAGAR","NA","1","ayurvedic","NA","72.648399353027","23.207758"
"079","AHMEDABAD","AHA8","AYURVEDIC LALDARWAJA","NA","3","ayurvedic","NA","72.569198608398","23.035217"
"079","AHMEDABAD","AHH1","HOMEO ASHRAM ROAD","NA","1","homeo","NA","72.569221496582","23.035244"
"080","BENGALURU","BA01","Wellness Center Shivajinagar","2nd Floor, Ganesh Towers, Infantry Road, Bangalore 560001","5","alopathic","080-25588777","77.603363037109","12.980318"
"080","BENGALURU","BA02","Wellness Center Seshadripuram","No.6, Sameera Complex, 1St Main, Seshadripuram, Bangalore 560003","3","alopathic","080 23311492","77.574111938477","12.98935"
"080","BENGALURU","BA03","Wellness Center Basavangudi","No 5 A, Aradhya Complex, Vani Vilas Road, Basavangudi Bangalore 560004","3","alopathic","080 2667300","77.547332763672","12.935114"
"080","BENGALURU","BA04","Wellness Center Ulsoor","No. 27, Car Street, Ulsoor, Bangalore-560008","3","alopathic","080 25510759","77.625366210938","12.975879"
"080","BENGALURU","BA05","Wellness Center Vijayanagara","GPRA Quarters, Vijayanagara, Bangalore 5600","5","alopathic","080 23351893","77.539962768555","12.973906"
"080","BENGALURU","BA06","Wellness Center Jayanara","No. 190, R.V. Road, 2nd Block, Jayanagar, Bangalore-560011","4","alopathic","080 26570202","77.579864501953","12.941909"
"080","BENGALURU","BA07","Wellness Center Koramangala","GPRA Quarters, Koramangala, Bangalore-560034","5","alopathic","080 25539277","77.620819091797","12.92536"
"080","BENGALURU","BA08","Wellness Center Domlur","GPRA Quarters Domlur 560071","4","alopathic","080 25355662","77.642333984375","12.959418"
"080","BENGALURU","BA09","Wellnessd Center Gangenahalli","No.11, 1st Cross, HGH Layout, Ganganagar, Bangalore-560032","3","alopathic","080 23330320","77.587432861328","13.022677"
"080","BENGALURU","BA10","Wellness Center CV Raman Nagar DRDO","DRDO Complex, C.V. Raman Nagar, Bangalore-560093","6","alopathic","080 25243236","77.662384033203","12.987225"
"080","BENGALURU","BA11","CGHS Polyclinic","3rd Floor, Ganesh Towers, Infantry Road, Bangalore 560001","5","alopathic","080 25589225","77.620819091797","12.92536"
"080","BENGALURU","BA12","KA AYUR1 BASAVANAGUDI","NA","1","ayurvedic","NA","77.547073364258","12.934715"
"080","BENGALURU","BA13","KA AYUR2 DOMLUR","NA","2","ayurvedic","NA","77.640037536621","12.960297"
"080","BENGALURU","BA14","KA HOMOEO SHIVAJINAGAR","NA","2","homeo","NA","77.603233337402","12.980467"
"080","BENGALURU","BA15","KA UNANI SHIVAJINAGAR","NA","1","unani","NA","77.603302001953","12.980249"
"0891","VISAKHAPATNAM","HYV","VISAKHAPATNAM","NA","4","alopathic","NA","83.331787109375","17.728617"
